start=new Date('2022-09-29T00:00:00.000Z').valueOf();
sats=[{"RCS_SIZE":"LARGE","PERIAPSIS":"546.196","GP_ID":"213769444","NORAD_CAT_ID":"45579","EPOCH":"2022-09-29T01:18:01.545120","FILE":"3586310","RA_OF_ASC_NODE":"282.5188","MEAN_MOTION_DOT":"0.00003021","MEAN_ANOMALY":"275.1120","MEAN_MOTION_DDOT":"0.0000000000000","ECCENTRICITY":"0.00014240","SITE":"AFETR","ARG_OF_PERICENTER":"85.0032","INCLINATION":"53.0536","OBJECT_ID":"2020-025BA","DECAY_DATE":null,"OBJECT_TYPE":"PAYLOAD","COUNTRY_CODE":"US","ELEMENT_SET_NO":"999","OBJECT_NAME":"STARLINK-1332","MEAN_ELEMENT_THEORY":"SGP4","EPHEMERIS_TYPE":"0","APOAPSIS":"548.168","REF_FRAME":"TEME","LAUNCH_DATE":"2020-04-22","TIME_SYSTEM":"UTC","BSTAR":"0.00022156000000","PERIOD":"95.591","TLE_LINE2":"2 45579  53.0536 282.5188 0001424  85.0032 275.1120 15.06410243135921","TLE_LINE1":"1 45579U 20025BA  22272.05418455  .00003021  00000-0  22156-3 0  9991","MEAN_MOTION":"15.06410243","CLASSIFICATION_TYPE":"U","SEMIMAJOR_AXIS":"6925.317","CENTER_NAME":"EARTH","REV_AT_EPOCH":"13592"},{"REV_AT_EPOCH":"13514","CENTER_NAME":"EARTH","SEMIMAJOR_AXIS":"6925.330","CLASSIFICATION_TYPE":"U","MEAN_MOTION":"15.06406019","TLE_LINE1":"1 45580U 20025BB  22271.58880235  .00002100  00000-0  15980-3 0  9993","TLE_LINE2":"2 45580  53.0565 334.4432 0001403  70.8188 289.2953 15.06406019135145","PERIOD":"95.592","LAUNCH_DATE":"2020-04-22","REF_FRAME":"TEME","BSTAR":"0.00015980000000","TIME_SYSTEM":"UTC","EPHEMERIS_TYPE":"0","APOAPSIS":"548.167","MEAN_ELEMENT_THEORY":"SGP4","OBJECT_NAME":"STARLINK-1333","ELEMENT_SET_NO":"999","COUNTRY_CODE":"US","OBJECT_TYPE":"PAYLOAD","OBJECT_ID":"2020-025BB","DECAY_DATE":null,"SITE":"AFETR","INCLINATION":"53.0565","ARG_OF_PERICENTER":"70.8188","MEAN_MOTION_DDOT":"0.0000000000000","ECCENTRICITY":"0.00014030","RA_OF_ASC_NODE":"334.4432","FILE":"3586310","MEAN_ANOMALY":"289.2953","MEAN_MOTION_DOT":"0.00002100","GP_ID":"213769451","RCS_SIZE":"LARGE","PERIAPSIS":"546.223","EPOCH":"2022-09-28T14:07:52.523040","NORAD_CAT_ID":"45580"},{"APOAPSIS":"548.238","EPHEMERIS_TYPE":"0","MEAN_ELEMENT_THEORY":"SGP4","OBJECT_NAME":"STARLINK-1335","ELEMENT_SET_NO":"999","COUNTRY_CODE":"US","REV_AT_EPOCH":"13587","SEMIMAJOR_AXIS":"6925.397","CENTER_NAME":"EARTH","MEAN_MOTION":"15.06384042","CLASSIFICATION_TYPE":"U","TLE_LINE1":"1 45581U 20025BC  22271.52708932 -.00000213  00000-0  45770-5 0  9997","PERIOD":"95.593","TLE_LINE2":"2 45581  53.0558 324.7271 0001409  64.4374 295.6761 15.06384042135872","BSTAR":"0.00000457700000","TIME_SYSTEM":"UTC","LAUNCH_DATE":"2020-04-22","REF_FRAME":"TEME","ECCENTRICITY":"0.00014090","MEAN_MOTION_DDOT":"0.0000000000000","MEAN_ANOMALY":"295.6761","MEAN_MOTION_DOT":"-0.00000213","RA_OF_ASC_NODE":"324.7271","FILE":"3586039","EPOCH":"2022-09-28T12:39:00.517248","NORAD_CAT_ID":"45581","GP_ID":"213706474","PERIAPSIS":"546.287","RCS_SIZE":"LARGE","OBJECT_TYPE":"PAYLOAD","DECAY_DATE":null,"OBJECT_ID":"2020-025BC","INCLINATION":"53.0558","ARG_OF_PERICENTER":"64.4374","SITE":"AFETR"},{"SITE":"AFETR","INCLINATION":"53.0551","ARG_OF_PERICENTER":"43.6187","OBJECT_ID":"2020-025BD","DECAY_DATE":null,"OBJECT_TYPE":"PAYLOAD","GP_ID":"213739840","PERIAPSIS":"546.117","RCS_SIZE":"LARGE","EPOCH":"2022-09-28T13:10:51.197088","NORAD_CAT_ID":"45582","RA_OF_ASC_NODE":"324.6418","FILE":"3586077","MEAN_ANOMALY":"316.4932","MEAN_MOTION_DOT":"0.00001509","ECCENTRICITY":"0.00016460","MEAN_MOTION_DDOT":"0.0000000000000","LAUNCH_DATE":"2020-04-22","REF_FRAME":"TEME","BSTAR":"0.00012024000000","TIME_SYSTEM":"UTC","TLE_LINE1":"1 45582U 20025BD  22271.54920367  .00001509  00000-0  12024-3 0  9990","PERIOD":"95.593","TLE_LINE2":"2 45582  53.0551 324.6418 0001646  43.6187 316.4932 15.06385777135274","CENTER_NAME":"EARTH","SEMIMAJOR_AXIS":"6925.392","CLASSIFICATION_TYPE":"U","MEAN_MOTION":"15.06385777","REV_AT_EPOCH":"13527","COUNTRY_CODE":"US","OBJECT_NAME":"STARLINK-1337","ELEMENT_SET_NO":"999","MEAN_ELEMENT_THEORY":"SGP4","EPHEMERIS_TYPE":"0","APOAPSIS":"548.397"},{"EPOCH":"2022-09-28T12:44:17.187936","NORAD_CAT_ID":"45583","GP_ID":"213707473","PERIAPSIS":"545.852","RCS_SIZE":"LARGE","ECCENTRICITY":"0.00019370","MEAN_MOTION_DDOT":"0.0000000000000","MEAN_ANOMALY":"306.3063","MEAN_MOTION_DOT":"0.00004054","FILE":"3586039","RA_OF_ASC_NODE":"324.7203","DECAY_DATE":null,"OBJECT_ID":"2020-025BE","INCLINATION":"53.0572","ARG_OF_PERICENTER":"53.8105","SITE":"AFETR","OBJECT_TYPE":"PAYLOAD","OBJECT_NAME":"STARLINK-1340","ELEMENT_SET_NO":"999","COUNTRY_CODE":"US","APOAPSIS":"548.535","EPHEMERIS_TYPE":"0","MEAN_ELEMENT_THEORY":"SGP4","TLE_LINE1":"1 45583U 20025BE  22271.53075449  .00004054  00000-0  29088-3 0  9998","PERIOD":"95.592","TLE_LINE2":"2 45583  53.0572 324.7203 0001937  53.8105 306.3063 15.06406411135875","TIME_SYSTEM":"UTC","BSTAR":"0.00029088000000","LAUNCH_DATE":"2020-04-22","REF_FRAME":"TEME","REV_AT_EPOCH":"13587","SEMIMAJOR_AXIS":"6925.329","CENTER_NAME":"EARTH","MEAN_MOTION":"15.06406411","CLASSIFICATION_TYPE":"U"},{"EPHEMERIS_TYPE":"0","APOAPSIS":"548.315","MEAN_ELEMENT_THEORY":"SGP4","OBJECT_NAME":"STARLINK-1343","ELEMENT_SET_NO":"999","COUNTRY_CODE":"US","REV_AT_EPOCH":"13588","SEMIMAJOR_AXIS":"6925.376","CENTER_NAME":"EARTH","MEAN_MOTION":"15.06391166","CLASSIFICATION_TYPE":"U","TLE_LINE1":"1 45584U 20025BF  22271.58510913  .00000797  00000-0  72417-4 0  9999","TLE_LINE2":"2 45584  53.0560 324.4703 0001552  62.7066 297.4081 15.06391166135884","PERIOD":"95.593","LAUNCH_DATE":"2020-04-22","REF_FRAME":"TEME","BSTAR":"0.00007241700000","TIME_SYSTEM":"UTC","ECCENTRICITY":"0.00015520","MEAN_MOTION_DDOT":"0.0000000000000","FILE":"3586039","RA_OF_ASC_NODE":"324.4703","MEAN_ANOMALY":"297.4081","MEAN_MOTION_DOT":"0.00000797","GP_ID":"213707212","PERIAPSIS":"546.166","RCS_SIZE":"LARGE","EPOCH":"2022-09-28T14:02:33.428832","NORAD_CAT_ID":"45584","OBJECT_TYPE":"PAYLOAD","OBJECT_ID":"2020-025BF","DECAY_DATE":null,"SITE":"AFETR","INCLINATION":"53.0560","ARG_OF_PERICENTER":"62.7066"},{"MEAN_ELEMENT_THEORY":"SGP4","APOAPSIS":"548.195","EPHEMERIS_TYPE":"0","COUNTRY_CODE":"US","OBJECT_NAME":"STARLINK-1347","ELEMENT_SET_NO":"999","SEMIMAJOR_AXIS":"6925.325","CENTER_NAME":"EARTH","MEAN_MOTION":"15.06407541","CLASSIFICATION_TYPE":"U","REV_AT_EPOCH":"13533","BSTAR":"0.00000466490000","TIME_SYSTEM":"UTC","LAUNCH_DATE":"2020-04-22","REF_FRAME":"TEME","TLE_LINE1":"1 45586U 20025BH  22272.00624784 -.00000212  00000-0  46649-5 0  9993","TLE_LINE2":"2 45586  53.0557 322.5918 0001450  68.1723 291.9420 15.06407541135337","PERIOD":"95.592","MEAN_ANOMALY":"291.9420","MEAN_MOTION_DOT":"-0.00000212","FILE":"3586319","RA_OF_ASC_NODE":"322.5918","MEAN_MOTION_DDOT":"0.0000000000000","ECCENTRICITY":"0.00014500","EPOCH":"2022-09-29T00:08:59.813376","NORAD_CAT_ID":"45586","GP_ID":"213769464","PERIAPSIS":"546.186","RCS_SIZE":"LARGE","OBJECT_TYPE":"PAYLOAD","INCLINATION":"53.0557","ARG_OF_PERICENTER":"68.1723","SITE":"AFETR","DECAY_DATE":null,"OBJECT_ID":"2020-025BH"},{"CLASSIFICATION_TYPE":"U","MEAN_MOTION":"15.06405576","CENTER_NAME":"EARTH","SEMIMAJOR_AXIS":"6925.331","REV_AT_EPOCH":"13586","TIME_SYSTEM":"UTC","BSTAR":"0.00020013000000","REF_FRAME":"TEME","LAUNCH_DATE":"2020-04-22","PERIOD":"95.592","TLE_LINE2":"2 45587  53.0547 325.1033 0001488  66.1678 293.9466 15.06405576135868","TLE_LINE1":"1 45587U 20025BJ  22271.44597743  .00002701  00000-0  20013-3 0  9994","MEAN_ELEMENT_THEORY":"SGP4","APOAPSIS":"548.227","EPHEMERIS_TYPE":"0","COUNTRY_CODE":"US","ELEMENT_SET_NO":"999","OBJECT_NAME":"STARLINK-1349","OBJECT_TYPE":"PAYLOAD","ARG_OF_PERICENTER":"66.1678","INCLINATION":"53.0547","SITE":"AFETR","DECAY_DATE":null,"OBJECT_ID":"2020-025BJ","MEAN_MOTION_DOT":"0.00002701","MEAN_ANOMALY":"293.9466","RA_OF_ASC_NODE":"325.1033","FILE":"3586039","MEAN_MOTION_DDOT":"0.0000000000000","ECCENTRICITY":"0.00014880","NORAD_CAT_ID":"45587","EPOCH":"2022-09-28T10:42:12.449952","PERIAPSIS":"546.166","RCS_SIZE":"LARGE","GP_ID":"213706723"},{"MEAN_MOTION_DDOT":"0.0000000000000","ECCENTRICITY":"0.00015030","MEAN_MOTION_DOT":"0.00005846","MEAN_ANOMALY":"281.4153","RA_OF_ASC_NODE":"324.6006","FILE":"3586135","NORAD_CAT_ID":"45588","EPOCH":"2022-09-28T13:21:26.734752","PERIAPSIS":"546.244","RCS_SIZE":"LARGE","GP_ID":"213741041","OBJECT_TYPE":"PAYLOAD","DECAY_DATE":null,"OBJECT_ID":"2020-025BK","ARG_OF_PERICENTER":"78.7005","INCLINATION":"53.0544","SITE":"AFETR","APOAPSIS":"548.326","EPHEMERIS_TYPE":"0","MEAN_ELEMENT_THEORY":"SGP4","ELEMENT_SET_NO":"999","OBJECT_NAME":"STARLINK-1360","COUNTRY_CODE":"US","REV_AT_EPOCH":"13527","CLASSIFICATION_TYPE":"U","MEAN_MOTION":"15.06376745","SEMIMAJOR_AXIS":"6925.420","CENTER_NAME":"EARTH","PERIOD":"95.594","TLE_LINE2":"2 45588  53.0544 324.6006 0001503  78.7005 281.4153 15.06376745135276","TLE_LINE1":"1 45588U 20025BK  22271.55655943  .00005846  00000-0  41125-3 0  9994","BSTAR":"0.00041125000000","TIME_SYSTEM":"UTC","REF_FRAME":"TEME","LAUNCH_DATE":"2020-04-22"},{"OBJECT_TYPE":"PAYLOAD","OBJECT_ID":"2020-025BL","DECAY_DATE":null,"SITE":"AFETR","ARG_OF_PERICENTER":"85.2283","INCLINATION":"53.0572","MEAN_MOTION_DDOT":"0.0000000000000","ECCENTRICITY":"0.00015560","FILE":"3586064","RA_OF_ASC_NODE":"324.6202","MEAN_MOTION_DOT":"0.00008251","MEAN_ANOMALY":"274.8883","PERIAPSIS":"546.243","RCS_SIZE":"LARGE","GP_ID":"213739214","NORAD_CAT_ID":"45589","EPOCH":"2022-09-28T13:16:09.401376","REV_AT_EPOCH":"13527","MEAN_MOTION":"15.06365121","CLASSIFICATION_TYPE":"U","CENTER_NAME":"EARTH","SEMIMAJOR_AXIS":"6925.455","TLE_LINE2":"2 45589  53.0572 324.6202 0001556  85.2283 274.8883 15.06365121135277","PERIOD":"95.594","TLE_LINE1":"1 45589U 20025BL  22271.55288659  .00008251  00000-0  57269-3 0  9990","REF_FRAME":"TEME","LAUNCH_DATE":"2020-04-22","BSTAR":"0.00057269000000","TIME_SYSTEM":"UTC","EPHEMERIS_TYPE":"0","APOAPSIS":"548.398","MEAN_ELEMENT_THEORY":"SGP4","ELEMENT_SET_NO":"999","OBJECT_NAME":"STARLINK-1364","COUNTRY_CODE":"US"}];
